ONEWEB-0228             
1 48780U 21045P   24277.85796951 -.00000035  00000+0 -12591-3 0  9991
2 48780  87.9116  22.8320 0001870 104.0753 256.0585 13.15546933162633
